H1 CPF 01  gfz 2021 08 16 12  7282 tandemx   
H2 1003001  6202 36605    2021 08 16 12 59 42 2021 08 21 00 00 42   120 1 1  0 0 0
H9
10 0 59445  69102.000000  0   -2158951.710   1556264.907  -6360788.824
10 0 59445  69222.000000  0   -1309667.770   1340362.120  -6635719.885
10 0 59445  69342.000000  0    -441812.018   1086220.107  -6794901.742
10 0 59445  69462.000000  0     428950.642    798058.859  -6835596.961
10 0 59445  69582.000000  0    1286992.859    480954.741  -6757105.496
10 0 59445  69702.000000  0    2116999.974    140752.812  -6560776.885
10 0 59445  69822.000000  0    2904237.151   -216037.957  -6249988.803
10 0 59445  69942.000000  0    3634807.227   -582364.949  -5830095.472
10 0 59445  70062.000000  0    4295893.619   -950766.522  -5308343.646
10 0 59445  70182.000000  0    4875987.018  -1313518.942  -4693760.037
10 0 59445  70302.000000  0    5365092.276  -1662794.183  -3997006.551
10 0 59445  70422.000000  0    5754909.532  -1990824.280  -3230205.162
10 0 59445  70542.000000  0    6038986.111  -2290069.626  -2406734.221
10 0 59445  70662.000000  0    6212834.696  -2553387.507  -1540998.512
10 0 59445  70782.000000  0    6274014.177  -2774196.301   -648177.402
10 0 59445  70902.000000  0    6222171.328  -2946631.577    256044.576
10 0 59445  71022.000000  0    6059040.969  -3065689.835   1155759.427
10 0 59445  71142.000000  0    5788404.764  -3127356.044   2035124.641
10 0 59445  71262.000000  0    5416006.179  -3128711.121   2878651.711
10 0 59445  71382.000000  0    4949427.094  -3068016.832   3671486.845
10 0 59445  71502.000000  0    4397928.061  -2944774.667   4399678.033
10 0 59445  71622.000000  0    3772259.140  -2759760.082   5050423.425
10 0 59445  71742.000000  0    3084442.008  -2515030.344   5612298.083
10 0 59445  71862.000000  0    2347530.889  -2213904.379   6075451.360
10 0 59445  71982.000000  0    1575359.105  -1860917.433   6431774.725
10 0 59445  72102.000000  0     782275.255  -1461751.288   6675037.961
10 0 59445  72222.000000  0     -17125.965  -1023140.979   6800992.007
10 0 59445  72342.000000  0    -808272.542   -552759.733   6807437.949
10 0 59445  72462.000000  0   -1576879.604    -59084.655   6694262.449
10 0 59445  72582.000000  0   -2309206.217    448755.696   6463439.681
10 0 59445  72702.000000  0   -2992300.518    961149.350   6118999.433
10 0 59445  72822.000000  0   -3614229.862   1468181.748   5666961.592
10 0 59445  72942.000000  0   -4164292.866   1959826.794   5115237.513
10 0 59445  73062.000000  0   -4633209.828   2426145.357   4473498.034
10 0 59445  73182.000000  0   -5013286.351   2857487.264   3753007.918
10 0 59445  73302.000000  0   -5298546.204   3244691.759   2966430.687
10 0 59445  73422.000000  0   -5484831.853   3579282.664   2127606.978
10 0 59445  73542.000000  0   -5569870.058   3853654.638   1251308.842
10 0 59445  73662.000000  0   -5553299.304   4061243.936    352972.946
10 0 59445  73782.000000  0   -5436657.538   4196679.305   -551578.968
10 0 59445  73902.000000  0   -5223332.587   4255910.082  -1446427.301
10 0 59445  74022.000000  0   -4918474.837   4236308.114  -2315844.685
10 0 59445  74142.000000  0   -4528873.158   4136738.845  -3144580.695
10 0 59445  74262.000000  0   -4062799.785   3957601.560  -3918133.698
10 0 59445  74382.000000  0   -3529828.449   3700838.296  -4623004.632
10 0 59445  74502.000000  0   -2940631.158   3369912.354  -5246928.233
10 0 59445  74622.000000  0   -2306760.518   2969757.556  -5779078.171
10 0 59445  74742.000000  0   -1640420.509   2506700.332  -6210246.308
10 0 59445  74862.000000  0    -954229.771   1988354.503  -6532990.892
10 0 59445  74982.000000  0    -260984.511   1423493.530  -6741752.856
10 0 59445  75102.000000  0     426575.835    821901.808  -6832941.449
10 0 59445  75222.000000  0    1095996.467    194208.025  -6804990.053
10 0 59445  75342.000000  0    1735328.655   -448299.061  -6658380.696
10 0 59445  75462.000000  0    2333337.582  -1093868.755  -6395635.189
10 0 59445  75582.000000  0    2879695.929  -1730497.694  -6021276.890
10 0 59445  75702.000000  0    3365160.491  -2346147.284  -5541761.042
10 0 59445  75822.000000  0    3781730.728  -2928968.600  -4965376.010
10 0 59445  75942.000000  0    4122784.963  -3467530.913  -4302109.899
10 0 59445  76062.000000  0    4383189.582  -3951046.241  -3563487.210
10 0 59445  76182.000000  0    4559382.530  -4369587.987  -2762378.380
10 0 59445  76302.000000  0    4649427.840  -4714298.940  -1912781.161
10 0 59445  76422.000000  0    4653038.612  -4977583.350  -1029578.041
10 0 59445  76542.000000  0    4571566.277  -5153277.795   -128272.823
10 0 59445  76662.000000  0    4407956.384  -5236794.788    775287.210
10 0 59445  76782.000000  0    4166672.522  -5225236.543   1665197.871
10 0 59445  76902.000000  0    3853588.121  -5117473.877   2525787.716
10 0 59445  77022.000000  0    3475850.130  -4914189.902   3341901.586
10 0 59445  77142.000000  0    3041718.507  -4617887.077   4099174.693
10 0 59445  77262.000000  0    2560385.178  -4232856.622   4784289.774
10 0 59445  77382.000000  0    2041777.737  -3765112.224   5385212.857
10 0 59445  77502.000000  0    1496352.336  -3222290.229   5891403.495
10 0 59445  77622.000000  0     934880.099  -2613517.702   6293995.897
10 0 59445  77742.000000  0     368232.685  -1949253.414   6585947.881
10 0 59445  77862.000000  0    -192828.733  -1241104.478   6762157.230
10 0 59445  77982.000000  0    -737856.737   -501621.596   6819546.266
10 0 59445  78102.000000  0   -1256911.139    255924.585   6757112.235
10 0 59445  78222.000000  0   -1740739.725   1017781.285   6575943.551
10 0 59445  78342.000000  0   -2180942.840   1769962.450   6279201.896
10 0 59445  78462.000000  0   -2570119.922   2498504.705   5872070.529
10 0 59445  78582.000000  0   -2901995.182   3189727.198   5361669.438
10 0 59445  78702.000000  0   -3171521.559   3830490.736   4756937.470
10 0 59445  78822.000000  0   -3374960.570   4408452.028   4068481.645
10 0 59445  78942.000000  0   -3509935.654   4912307.737   3308395.197
10 0 59445  79062.000000  0   -3575457.747   5332022.888   2490046.320
10 0 59445  79182.000000  0   -3571922.215   5659037.209   1627840.896
10 0 59445  79302.000000  0   -3501076.950   5886443.973    736964.972
10 0 59445  79422.000000  0   -3365963.319   6009139.836   -166888.406
10 0 59445  79542.000000  0   -3170829.906   6023939.052  -1067805.206
10 0 59445  79662.000000  0   -2921021.704   5929647.890  -1949941.214
10 0 59445  79782.000000  0   -2622845.384   5727096.681  -2797810.561
10 0 59445  79902.000000  0   -2283416.774   5419131.024  -3596561.311
10 0 59445  80022.000000  0   -1910496.407   5010564.895  -4332237.598
10 0 59445  80142.000000  0   -1512315.134   4508093.880  -4992021.084
10 0 59445  80262.000000  0   -1097396.032   3920175.294  -5564447.420
10 0 59445  80382.000000  0    -674375.069   3256877.347  -6039597.768
10 0 59445  80502.000000  0    -251824.047   2529698.731  -6409261.039
10 0 59445  80622.000000  0     161919.501   1751364.392  -6667063.422
10 0 59445  80742.000000  0     558911.864    935602.810  -6808567.959
10 0 59445  80862.000000  0     931751.592     96906.377  -6831343.159
10 0 59445  80982.000000  0    1273713.935   -749721.559  -6734999.893
10 0 59445  81102.000000  0    1578868.575  -1589028.943  -6521195.728
10 0 59445  81222.000000  0    1842180.095  -2405781.989  -6193609.398
10 0 59445  81342.000000  0    2059590.644  -3185035.200  -5757885.383
10 0 59445  81462.000000  0    2228082.912  -3912402.978  -5221548.139
10 0 59445  81582.000000  0    2345722.348  -4574326.818  -4593881.839
10 0 59445  81702.000000  0    2411677.234  -5158330.006  -3885779.913
10 0 59445  81822.000000  0    2426216.527  -5653259.120  -3109566.604
10 0 59445  81942.000000  0    2390685.182  -6049506.579  -2278789.755
10 0 59445  82062.000000  0    2307457.157  -6339208.406  -1407988.301
10 0 59445  82182.000000  0    2179865.790  -6516411.724   -512437.241
10 0 59445  82302.000000  0    2012114.573  -6577204.727    392126.150
10 0 59445  82422.000000  0    1809167.769  -6519806.735   1289784.912
10 0 59445  82542.000000  0    1576626.873  -6344618.021   2164731.621
10 0 59445  82662.000000  0    1320592.350  -6054222.301   3001556.990
10 0 59445  82782.000000  0    1047516.682  -5653346.008   3785528.194
10 0 59445  82902.000000  0     764052.109  -5148774.973   4502853.386
10 0 59445  83022.000000  0     476896.740  -4549231.834   5140926.696
10 0 59445  83142.000000  0     192642.233  -3865215.783   5688550.257
10 0 59445  83262.000000  0     -82371.569  -3108808.266   6136128.005
10 0 59445  83382.000000  0    -342193.138  -2293450.619   6475827.617
10 0 59445  83502.000000  0    -581384.167  -1433700.672   6701710.314
10 0 59445  83622.000000  0    -795130.279   -544970.871   6809829.646
10 0 59445  83742.000000  0    -979336.138    356749.453   6798297.244
10 0 59445  83862.000000  0   -1130703.292   1255182.017   6667313.666
10 0 59445  83982.000000  0   -1246788.793   2134052.863   6419164.839
10 0 59445  84102.000000  0   -1326044.555   2977386.682   6058184.796
10 0 59445  84222.000000  0   -1367837.183   3769798.167   5590684.524
10 0 59445  84342.000000  0   -1372446.902   4496775.391   5024847.335
10 0 59445  84462.000000  0   -1341046.425   5144951.381   4370592.284
10 0 59445  84582.000000  0   -1275659.853   5702358.041   3639404.372
10 0 59445  84702.000000  0   -1179102.149   6158655.316   2844135.989
10 0 59445  84822.000000  0   -1054902.637   6505334.223   1998781.746
10 0 59445  84942.000000  0    -907209.205   6735885.199   1118227.614
10 0 59445  85062.000000  0    -740678.618   6845926.633    217982.929
10 0 59445  85182.000000  0    -560355.382   6833292.845   -686099.971
10 0 59445  85302.000000  0    -371541.947   6698077.718  -1578115.247
10 0 59445  85422.000000  0    -179664.204   6442629.433  -2442393.374
10 0 59445  85542.000000  0       9863.563   6071500.080  -3263781.806
99
